start=new Date('2023-04-21T00:00:00.000Z').valueOf();
sats=[{"LAUNCH_DATE":"2022-09-19","PERIOD":"95.436","SEMIMAJOR_AXIS":"6917.829","CENTER_NAME":"EARTH","TLE_LINE2":"2 53829  53.2177 358.3870 0001037 103.7396 256.3712 15.08856775 33620","PERIAPSIS":"538.977","REF_FRAME":"TEME","ECCENTRICITY":"0.00010370","CLASSIFICATION_TYPE":"U","NORAD_CAT_ID":"53829","MEAN_ANOMALY":"256.3712","INCLINATION":"53.2177","ELEMENT_SET_NO":"999","MEAN_ELEMENT_THEORY":"SGP4","BSTAR":"0.00076937000000","DECAY_DATE":null,"MEAN_MOTION_DOT":"0.00011983","EPHEMERIS_TYPE":"0","TLE_LINE1":"1 53829U 22114M   23110.09869024  .00011983  00000-0  76937-3 0  9999","MEAN_MOTION_DDOT":"0.0000000000000","GP_ID":"230430553","FILE":"3890827","OBJECT_TYPE":"PAYLOAD","OBJECT_ID":"2022-114M","MEAN_MOTION":"15.08856775","TIME_SYSTEM":"UTC","REV_AT_EPOCH":"3362","RA_OF_ASC_NODE":"358.3870","ARG_OF_PERICENTER":"103.7396","EPOCH":"2023-04-20T02:22:06.836736","APOAPSIS":"540.411","COUNTRY_CODE":"US","SITE":"AFETR","RCS_SIZE":"LARGE","OBJECT_NAME":"STARLINK-4759"},{"INCLINATION":"53.2173","ELEMENT_SET_NO":"999","MEAN_ANOMALY":"263.2292","NORAD_CAT_ID":"53830","CLASSIFICATION_TYPE":"U","EPHEMERIS_TYPE":"0","DECAY_DATE":null,"MEAN_MOTION_DOT":"0.00003452","MEAN_ELEMENT_THEORY":"SGP4","BSTAR":"0.00023480000000","CENTER_NAME":"EARTH","PERIOD":"95.437","SEMIMAJOR_AXIS":"6917.850","LAUNCH_DATE":"2022-09-19","ECCENTRICITY":"0.00014010","TLE_LINE2":"2 53830  53.2173 358.2718 0001401  96.8859 263.2292 15.08850021 33627","REF_FRAME":"TEME","PERIAPSIS":"538.746","COUNTRY_CODE":"US","APOAPSIS":"540.684","EPOCH":"2023-04-20T01:55:34.649760","OBJECT_NAME":"STARLINK-4761","RCS_SIZE":"LARGE","SITE":"AFETR","OBJECT_ID":"2022-114N","OBJECT_TYPE":"PAYLOAD","MEAN_MOTION":"15.08850021","GP_ID":"230431805","FILE":"3890827","TLE_LINE1":"1 53830U 22114N   23110.08026215  .00003452  00000-0  23480-3 0  9994","MEAN_MOTION_DDOT":"0.0000000000000","RA_OF_ASC_NODE":"358.2718","ARG_OF_PERICENTER":"96.8859","REV_AT_EPOCH":"3362","TIME_SYSTEM":"UTC"},{"EPHEMERIS_TYPE":"0","MEAN_MOTION_DOT":"0.00004997","DECAY_DATE":null,"MEAN_ELEMENT_THEORY":"SGP4","BSTAR":"0.00033167000000","ELEMENT_SET_NO":"999","INCLINATION":"53.2186","MEAN_ANOMALY":"281.7409","NORAD_CAT_ID":"53831","CLASSIFICATION_TYPE":"U","ECCENTRICITY":"0.00015510","REF_FRAME":"TEME","PERIAPSIS":"538.626","TLE_LINE2":"2 53831  53.2186 358.6620 0001551  78.3757 281.7409 15.08855029 33613","CENTER_NAME":"EARTH","SEMIMAJOR_AXIS":"6917.834","PERIOD":"95.437","LAUNCH_DATE":"2022-09-19","OBJECT_NAME":"STARLINK-4649","RCS_SIZE":"LARGE","SITE":"AFETR","COUNTRY_CODE":"US","EPOCH":"2023-04-20T00:41:24.890784","APOAPSIS":"540.772","ARG_OF_PERICENTER":"78.3757","RA_OF_ASC_NODE":"358.6620","REV_AT_EPOCH":"3361","TIME_SYSTEM":"UTC","MEAN_MOTION":"15.08855029","OBJECT_ID":"2022-114P","OBJECT_TYPE":"PAYLOAD","FILE":"3890827","GP_ID":"230431555","MEAN_MOTION_DDOT":"0.0000000000000","TLE_LINE1":"1 53831U 22114P   23110.02876031  .00004997  00000-0  33167-3 0  9996"},{"INCLINATION":"53.2171","ELEMENT_SET_NO":"999","MEAN_ANOMALY":"280.5114","NORAD_CAT_ID":"53832","CLASSIFICATION_TYPE":"U","EPHEMERIS_TYPE":"0","DECAY_DATE":null,"MEAN_MOTION_DOT":"-0.00000120","BSTAR":"0.00001056700000","MEAN_ELEMENT_THEORY":"SGP4","CENTER_NAME":"EARTH","PERIOD":"95.438","SEMIMAJOR_AXIS":"6917.889","LAUNCH_DATE":"2022-09-19","ECCENTRICITY":"0.00017260","TLE_LINE2":"2 53832  53.2171 354.3652 0001726  79.6073 280.5114 15.08837326 33750","REF_FRAME":"TEME","PERIAPSIS":"538.560","COUNTRY_CODE":"US","EPOCH":"2023-04-20T22:24:59.605344","APOAPSIS":"540.948","OBJECT_NAME":"STARLINK-4747","RCS_SIZE":"LARGE","SITE":"AFETR","OBJECT_ID":"2022-114Q","OBJECT_TYPE":"PAYLOAD","MEAN_MOTION":"15.08837326","GP_ID":"230463828","FILE":"3891109","TLE_LINE1":"1 53832U 22114Q   23110.93402321 -.00000120  00000-0  10567-4 0  9999","MEAN_MOTION_DDOT":"0.0000000000000","RA_OF_ASC_NODE":"354.3652","ARG_OF_PERICENTER":"79.6073","REV_AT_EPOCH":"3375","TIME_SYSTEM":"UTC"},{"CENTER_NAME":"EARTH","SEMIMAJOR_AXIS":"6917.892","PERIOD":"95.438","LAUNCH_DATE":"2022-09-19","ECCENTRICITY":"0.00011640","PERIAPSIS":"538.952","REF_FRAME":"TEME","TLE_LINE2":"2 53833  53.2171 354.4321 0001164  66.7022 293.4093 15.08836040 33753","ELEMENT_SET_NO":"999","INCLINATION":"53.2171","MEAN_ANOMALY":"293.4093","NORAD_CAT_ID":"53833","CLASSIFICATION_TYPE":"U","EPHEMERIS_TYPE":"0","MEAN_MOTION_DOT":"0.00000086","DECAY_DATE":null,"MEAN_ELEMENT_THEORY":"SGP4","BSTAR":"0.00002351700000","MEAN_MOTION":"15.08836040","OBJECT_ID":"2022-114R","OBJECT_TYPE":"PAYLOAD","FILE":"3891109","GP_ID":"230464080","MEAN_MOTION_DDOT":"0.0000000000000","TLE_LINE1":"1 53833U 22114R   23110.94507783  .00000086  00000-0  23517-4 0  9998","ARG_OF_PERICENTER":"66.7022","RA_OF_ASC_NODE":"354.4321","REV_AT_EPOCH":"3375","TIME_SYSTEM":"UTC","COUNTRY_CODE":"US","APOAPSIS":"540.563","EPOCH":"2023-04-20T22:40:54.724512","OBJECT_NAME":"STARLINK-4771","RCS_SIZE":"LARGE","SITE":"AFETR"},{"GP_ID":"230431305","FILE":"3890827","OBJECT_TYPE":"PAYLOAD","OBJECT_ID":"2022-114S","MEAN_MOTION":"15.08842265","TLE_LINE1":"1 53834U 22114S   23110.06552897  .00002310  00000-0  16316-3 0  9998","MEAN_MOTION_DDOT":"0.0000000000000","REV_AT_EPOCH":"3362","RA_OF_ASC_NODE":"358.1849","ARG_OF_PERICENTER":"79.0873","TIME_SYSTEM":"UTC","COUNTRY_CODE":"US","APOAPSIS":"540.984","EPOCH":"2023-04-20T01:34:21.703008","OBJECT_NAME":"STARLINK-4737","SITE":"AFETR","RCS_SIZE":"LARGE","PERIOD":"95.437","SEMIMAJOR_AXIS":"6917.873","CENTER_NAME":"EARTH","LAUNCH_DATE":"2022-09-19","ECCENTRICITY":"0.00018000","TLE_LINE2":"2 53834  53.2182 358.1849 0001800  79.0873 281.0322 15.08842265 33620","REF_FRAME":"TEME","PERIAPSIS":"538.493","MEAN_ANOMALY":"281.0322","INCLINATION":"53.2182","ELEMENT_SET_NO":"999","CLASSIFICATION_TYPE":"U","NORAD_CAT_ID":"53834","EPHEMERIS_TYPE":"0","BSTAR":"0.00016316000000","MEAN_ELEMENT_THEORY":"SGP4","DECAY_DATE":null,"MEAN_MOTION_DOT":"0.00002310"},{"INCLINATION":"53.2168","ELEMENT_SET_NO":"999","MEAN_ANOMALY":"264.7034","NORAD_CAT_ID":"53835","CLASSIFICATION_TYPE":"U","EPHEMERIS_TYPE":"0","DECAY_DATE":null,"MEAN_MOTION_DOT":"0.00001133","MEAN_ELEMENT_THEORY":"SGP4","BSTAR":"0.00008924700000","CENTER_NAME":"EARTH","PERIOD":"95.438","SEMIMAJOR_AXIS":"6917.878","LAUNCH_DATE":"2022-09-19","ECCENTRICITY":"0.00013820","TLE_LINE2":"2 53835  53.2168 354.3864 0001382  95.4115 264.7034 15.08840725 33757","REF_FRAME":"TEME","PERIAPSIS":"538.787","COUNTRY_CODE":"US","APOAPSIS":"540.699","EPOCH":"2023-04-20T22:30:17.408736","OBJECT_NAME":"STARLINK-4783","RCS_SIZE":"LARGE","SITE":"AFETR","OBJECT_TYPE":"PAYLOAD","OBJECT_ID":"2022-114T","MEAN_MOTION":"15.08840725","GP_ID":"230463079","FILE":"3891109","TLE_LINE1":"1 53835U 22114T   23110.93770149  .00001133  00000-0  89247-4 0  9993","MEAN_MOTION_DDOT":"0.0000000000000","RA_OF_ASC_NODE":"354.3864","ARG_OF_PERICENTER":"95.4115","REV_AT_EPOCH":"3375","TIME_SYSTEM":"UTC"},{"OBJECT_NAME":"STARLINK-4778","SITE":"AFETR","RCS_SIZE":"LARGE","COUNTRY_CODE":"US","APOAPSIS":"540.267","EPOCH":"2023-04-20T21:49:17.907456","REV_AT_EPOCH":"3388","ARG_OF_PERICENTER":"95.3030","RA_OF_ASC_NODE":"344.9279","TIME_SYSTEM":"UTC","FILE":"3891109","GP_ID":"230463329","MEAN_MOTION":"15.08836497","OBJECT_TYPE":"PAYLOAD","OBJECT_ID":"2022-114U","MEAN_MOTION_DDOT":"0.0000000000000","TLE_LINE1":"1 53836U 22114U   23110.90923504 -.00000487  00000-0 -12557-4 0  9999","EPHEMERIS_TYPE":"0","BSTAR":"-0.00001255700000","MEAN_ELEMENT_THEORY":"SGP4","MEAN_MOTION_DOT":"-0.00000487","DECAY_DATE":null,"MEAN_ANOMALY":"264.8046","ELEMENT_SET_NO":"999","INCLINATION":"53.2170","CLASSIFICATION_TYPE":"U","NORAD_CAT_ID":"53836","ECCENTRICITY":"0.00007380","PERIAPSIS":"539.246","REF_FRAME":"TEME","TLE_LINE2":"2 53836  53.2170 344.9279 0000738  95.3030 264.8046 15.08836497 33884","SEMIMAJOR_AXIS":"6917.891","PERIOD":"95.438","CENTER_NAME":"EARTH","LAUNCH_DATE":"2022-09-19"},{"RA_OF_ASC_NODE":"358.2071","ARG_OF_PERICENTER":"100.4354","REV_AT_EPOCH":"3362","TIME_SYSTEM":"UTC","OBJECT_TYPE":"PAYLOAD","OBJECT_ID":"2022-114V","MEAN_MOTION":"15.08852445","GP_ID":"230430554","FILE":"3890827","TLE_LINE1":"1 53837U 22114V   23110.06921155  .00005646  00000-0  37243-3 0  9995","MEAN_MOTION_DDOT":"0.0000000000000","OBJECT_NAME":"STARLINK-4776","RCS_SIZE":"LARGE","SITE":"AFETR","COUNTRY_CODE":"US","APOAPSIS":"540.782","EPOCH":"2023-04-20T01:39:39.877920","ECCENTRICITY":"0.00015530","TLE_LINE2":"2 53837  53.2174 358.2071 0001553 100.4354 259.6813 15.08852445 33627","REF_FRAME":"TEME","PERIAPSIS":"538.633","CENTER_NAME":"EARTH","PERIOD":"95.437","SEMIMAJOR_AXIS":"6917.842","LAUNCH_DATE":"2022-09-19","EPHEMERIS_TYPE":"0","DECAY_DATE":null,"MEAN_MOTION_DOT":"0.00005646","MEAN_ELEMENT_THEORY":"SGP4","BSTAR":"0.00037243000000","INCLINATION":"53.2174","ELEMENT_SET_NO":"999","MEAN_ANOMALY":"259.6813","NORAD_CAT_ID":"53837","CLASSIFICATION_TYPE":"U"},{"MEAN_MOTION":"15.08845302","OBJECT_TYPE":"PAYLOAD","OBJECT_ID":"2022-114W","FILE":"3891109","GP_ID":"230464831","MEAN_MOTION_DDOT":"0.0000000000000","TLE_LINE1":"1 53838U 22114W   23110.90555117  .00005139  00000-0  34071-3 0  9993","ARG_OF_PERICENTER":"69.1458","RA_OF_ASC_NODE":"344.9112","REV_AT_EPOCH":"3388","TIME_SYSTEM":"UTC","COUNTRY_CODE":"US","EPOCH":"2023-04-20T21:43:59.621088","APOAPSIS":"540.775","OBJECT_NAME":"STARLINK-4773","RCS_SIZE":"LARGE","SITE":"AFETR","CENTER_NAME":"EARTH","SEMIMAJOR_AXIS":"6917.864","PERIOD":"95.437","LAUNCH_DATE":"2022-09-19","ECCENTRICITY":"0.00015120","PERIAPSIS":"538.683","REF_FRAME":"TEME","TLE_LINE2":"2 53838  53.2158 344.9112 0001512  69.1458 290.9696 15.08845302 33888","ELEMENT_SET_NO":"999","INCLINATION":"53.2158","MEAN_ANOMALY":"290.9696","NORAD_CAT_ID":"53838","CLASSIFICATION_TYPE":"U","EPHEMERIS_TYPE":"0","MEAN_MOTION_DOT":"0.00005139","DECAY_DATE":null,"BSTAR":"0.00034071000000","MEAN_ELEMENT_THEORY":"SGP4"}];
